<?xml version='1.0' encoding='utf-8'?>
<q:quakeml xmlns="http://quakeml.org/xmlns/bed/1.2" xmlns:q="http://quakeml.org/xmlns/quakeml/1.2">
  <eventParameters publicID="smi:org.gfz-potsdam.de/geofon/EventParameters">
    <event publicID="smi:org.gfz-potsdam.de/geofon/texnet2023vxae">
      <preferredOriginID>smi:org.gfz-potsdam.de/geofon/NLL.20231108154601.896224.85124</preferredOriginID>
      <preferredMagnitudeID>smi:org.gfz-potsdam.de/geofon/Magnitude/20231108154605.414763.85167</preferredMagnitudeID>
      <preferredFocalMechanismID>smi:org.gfz-potsdam.de/geofon/FocalMechanism/20231108125249.296192.82178</preferredFocalMechanismID>
      <type>earthquake</type>
      <typeCertainty>known</typeCertainty>
      <description>
        <text>Western Texas</text>
        <type>region name</type>
      </description>
      <creationInfo>
        <agencyID>TXNet</agencyID>
        <author>scevent@scdb.beg.utexas.edu</author>
        <creationTime>2023-11-08T10:27:57.946192Z</creationTime>
      </creationInfo>
      <origin publicID="smi:org.gfz-potsdam.de/geofon/NLL.20231108154601.896224.85124">
        <time>
          <value>2023-11-08T10:27:49.034019Z</value>
        </time>
        <latitude>
          <value>31.62209407</value>
          <uncertainty>0.4005509935</uncertainty>
        </latitude>
        <longitude>
          <value>-103.9820397</value>
          <uncertainty>0.4019524065</uncertainty>
        </longitude>
        <depth>
          <value>7416.967773</value>
          <uncertainty>841.9580201</uncertainty>
        </depth>
        <methodID>smi:org.gfz-potsdam.de/geofon/NonLinLoc</methodID>
        <earthModelID>smi:org.gfz-potsdam.de/geofon/PB1D-20170918-topoLV</earthModelID>
        <quality>
          <associatedPhaseCount>106</associatedPhaseCount>
          <usedPhaseCount>39</usedPhaseCount>
          <usedStationCount>31</usedStationCount>
          <standardError>0.1666900562</standardError>
          <azimuthalGap>51.59378107</azimuthalGap>
          <secondaryAzimuthalGap>56.4827612</secondaryAzimuthalGap>
          <groundTruthLevel>-</groundTruthLevel>
          <minimumDistance>0.03055486578</minimumDistance>
          <maximumDistance>0.3244273093</maximumDistance>
          <medianDistance>0.2461430415</medianDistance>
        </quality>
        <evaluationMode>manual</evaluationMode>
        <evaluationStatus>final</evaluationStatus>
        <creationInfo>
          <agencyID>TXNet</agencyID>
          <author>daniel</author>
          <creationTime>2023-11-08T15:46:02.802585Z</creationTime>
        </creationInfo>
        <originUncertainty>
          <horizontalUncertainty>630.6655439</horizontalUncertainty>
          <minHorizontalUncertainty>585.5567379</minHorizontalUncertainty>
          <maxHorizontalUncertainty>630.6655439</maxHorizontalUncertainty>
          <azimuthMaxHorizontalUncertainty>46.35120187</azimuthMaxHorizontalUncertainty>
          <confidenceEllipsoid>
            <semiMajorAxisLength>1595001.803</semiMajorAxisLength>
            <semiMinorAxisLength>701103.8339</semiMinorAxisLength>
            <semiIntermediateAxisLength>776852.733</semiIntermediateAxisLength>
            <majorAxisPlunge>171.7841878</majorAxisPlunge>
            <majorAxisAzimuth>-16.8025898</majorAxisAzimuth>
            <majorAxisRotation>97.69993378</majorAxisRotation>
          </confidenceEllipsoid>
        </originUncertainty>
        <arrival publicID="smi:org.gfz-potsdam.de/geofon/Pick/20231108104442.321607.79430_NLL.20231108154601.896224.85124">
          <pickID>smi:org.gfz-potsdam.de/geofon/Pick/20231108104442.321607.79430</pickID>
          <phase>P</phase>
          <timeCorrection>0.0</timeCorrection>
          <azimuth>215.3680619</azimuth>
          <distance>0.1067930195</distance>
          <takeoffAngle>
            <value>114.1</value>
          </takeoffAngle>
          <timeResidual>-0.02214773549</timeResidual>
          <timeWeight>1.326917136</timeWeight>
        </arrival>
        <arrival publicID="smi:org.gfz-potsdam.de/geofon/Pick/20231108104442.322026.79431_NLL.20231108154601.896224.85124">
          <pickID>smi:org.gfz-potsdam.de/geofon/Pick/20231108104442.322026.79431</pickID>
          <phase>S</phase>
          <timeCorrection>0.0</timeCorrection>
          <azimuth>215.3680619</azimuth>
          <distance>0.1067930195</distance>
          <takeoffAngle>
            <value>114.1</value>
          </takeoffAngle>
          <timeResidual>0.2586480529</timeResidual>
          <timeWeight>1.020552751</timeWeight>
        </arrival>
        <arrival publicID="smi:org.gfz-potsdam.de/geofon/Pick/20231108104442.322249.79432_NLL.20231108154601.896224.85124">
          <pickID>smi:org.gfz-potsdam.de/geofon/Pick/20231108104442.322249.79432</pickID>
          <phase>S</phase>
          <timeCorrection>0.0</timeCorrection>
          <azimuth>64.27570661</azimuth>
          <distance>0.04559673312</distance>
          <takeoffAngle>
            <value>144.4</value>
          </takeoffAngle>
          <timeResidual>-0.02783614177</timeResidual>
          <timeWeight>1.321007273</timeWeight>
        </arrival>
        <arrival publicID="smi:org.gfz-potsdam.de/geofon/Pick/20231108104442.322422.79433_NLL.20231108154601.896224.85124">
          <pickID>smi:org.gfz-potsdam.de/geofon/Pick/20231108104442.322422.79433</pickID>
          <phase>P</phase>
          <timeCorrection>0.0</timeCorrection>
          <azimuth>64.27570661</azimuth>
          <distance>0.04559673312</distance>
          <takeoffAngle>
            <value>144.4</value>
          </takeoffAngle>
          <timeResidual>0.0419216669</timeResidual>
          <timeWeight>1.350667901</timeWeight>
        </arrival>
        <arrival publicID="smi:org.gfz-potsdam.de/geofon/Pick/20231108104442.322595.79434_NLL.20231108154601.896224.85124">
          <pickID>smi:org.gfz-potsdam.de/geofon/Pick/20231108104442.322595.79434</pickID>
          <phase>P</phase>
          <timeCorrection>0.0</timeCorrection>
          <azimuth>319.2457451</azimuth>
          <distance>0.07246329249</distance>
          <takeoffAngle>
            <value>127.7</value>
          </takeoffAngle>
          <timeResidual>0.02728371247</timeResidual>
          <timeWeight>1.005133488</timeWeight>
        </arrival>
        <arrival publicID="smi:org.gfz-potsdam.de/geofon/Pick/20231108104442.322766.79435_NLL.20231108154601.896224.85124">
          <pickID>smi:org.gfz-potsdam.de/geofon/Pick/20231108104442.322766.79435</pickID>
          <phase>S</phase>
          <timeCorrection>0.0</timeCorrection>
          <azimuth>319.2457451</azimuth>
          <distance>0.07246329249</distance>
          <takeoffAngle>
            <value>127.7</value>
          </takeoffAngle>
          <timeResidual>0.1804199285</timeResidual>
          <timeWeight>0.9719759114</timeWeight>
        </arrival>
        <arrival publicID="smi:org.gfz-potsdam.de/geofon/Pick/20231108104442.322932.79436_NLL.20231108154601.896224.85124">
          <pickID>smi:org.gfz-potsdam.de/geofon/Pick/20231108104442.322932.79436</pickID>
          <phase>S</phase>
          <timeCorrection>0.0</timeCorrection>
          <azimuth>158.8853007</azimuth>
          <distance>0.2705030817</distance>
          <takeoffAngle>
            <value>95.3</value>
          </takeoffAngle>
          <timeResidual>-0.02662856708</timeResidual>
          <timeWeight>0.9644894413</timeWeight>
        </arrival>
        <arrival publicID="smi:org.gfz-potsdam.de/geofon/Pick/20231108104442.323089.79437_NLL.20231108154601.896224.85124">
          <pickID>smi:org.gfz-potsdam.de/geofon/Pick/20231108104442.323089.79437</pickID>
          <phase>P</phase>
          <timeCorrection>0.0</timeCorrection>
          <azimuth>158.8853007</azimuth>
          <distance>0.2705030817</distance>
          <takeoffAngle>
            <value>95.3</value>
          </takeoffAngle>
          <timeResidual>0.01351117251</timeResidual>
          <timeWeight>0.9989557066</timeWeight>
        </arrival>
        <arrival publicID="smi:org.gfz-potsdam.de/geofon/Pick/20231108104442.323238.79438_NLL.20231108154601.896224.85124">
          <pickID>smi:org.gfz-potsdam.de/geofon/Pick/20231108104442.323238.79438</pickID>
          <phase>P</phase>
          <timeCorrection>0.0</timeCorrection>
          <azimuth>60.05202354</azimuth>
          <distance>0.1155270849</distance>
          <takeoffAngle>
            <value>111.3</value>
          </takeoffAngle>
          <timeResidual>0.09759755376</timeResidual>
          <timeWeight>1.006180524</timeWeight>
        </arrival>
        <arrival publicID="smi:org.gfz-potsdam.de/geofon/Pick/20231108104442.32338.79439_NLL.20231108154601.896224.85124">
          <pickID>smi:org.gfz-potsdam.de/geofon/Pick/20231108104442.32338.79439</pickID>
          <phase>S</phase>
          <timeCorrection>0.0</timeCorrection>
          <azimuth>60.05202354</azimuth>
          <distance>0.1155270849</distance>
          <takeoffAngle>
            <value>111.3</value>
          </takeoffAngle>
          <timeResidual>0.5909143993</timeResidual>
          <timeWeight>0.4830572486</timeWeight>
        </arrival>
        <arrival publicID="smi:org.gfz-potsdam.de/geofon/Pick/20231108104816.580114.83454_NLL.20231108154601.896224.85124">
          <pickID>smi:org.gfz-potsdam.de/geofon/Pick/20231108104816.580114.83454</pickID>
          <phase>P</phase>
          <timeCorrection>0.0</timeCorrection>
          <azimuth>275.2950624</azimuth>
          <distance>0.06828695226</distance>
          <takeoffAngle>
            <value>130.4</value>
          </takeoffAngle>
          <timeResidual>0.345798427</timeResidual>
          <timeWeight>0.8483382645</timeWeight>
        </arrival>
        <arrival publicID="smi:org.gfz-potsdam.de/geofon/Pick/20231108104816.580424.83456_NLL.20231108154601.896224.85124">
          <pickID>smi:org.gfz-potsdam.de/geofon/Pick/20231108104816.580424.83456</pickID>
          <phase>P</phase>
          <timeCorrection>0.0</timeCorrection>
          <azimuth>242.7964272</azimuth>
          <distance>0.08474326095</distance>
          <takeoffAngle>
            <value>122.2</value>
          </takeoffAngle>
          <timeResidual>-0.01048184524</timeResidual>
          <timeWeight>1.166353043</timeWeight>
        </arrival>
        <arrival publicID="smi:org.gfz-potsdam.de/geofon/Pick/20231108104816.580611.83457_NLL.20231108154601.896224.85124">
          <pickID>smi:org.gfz-potsdam.de/geofon/Pick/20231108104816.580611.83457</pickID>
          <phase>P</phase>
          <timeCorrection>0.0</timeCorrection>
          <azimuth>298.7277074</azimuth>
          <distance>0.08801718079</distance>
          <takeoffAngle>
            <value>120.7</value>
          </takeoffAngle>
          <timeResidual>-0.01434716</timeResidual>
          <timeWeight>1.163845702</timeWeight>
        </arrival>
        <arrival publicID="smi:org.gfz-potsdam.de/geofon/Pick/20231108104816.581191.83461_NLL.20231108154601.896224.85124">
          <pickID>smi:org.gfz-potsdam.de/geofon/Pick/20231108104816.581191.83461</pickID>
          <phase>P</phase>
          <timeCorrection>0.0</timeCorrection>
          <azimuth>15.67236004</azimuth>
          <distance>0.1186941588</distance>
          <takeoffAngle>
            <value>110.5</value>
          </takeoffAngle>
          <timeResidual>0.0333643594</timeResidual>
          <timeWeight>1.184176703</timeWeight>
        </arrival>
        <arrival publicID="smi:org.gfz-potsdam.de/geofon/Pick/20231108104816.58133.83462_NLL.20231108154601.896224.85124">
          <pickID>smi:org.gfz-potsdam.de/geofon/Pick/20231108104816.58133.83462</pickID>
          <phase>P</phase>
          <timeCorrection>0.0</timeCorrection>
          <azimuth>339.7013555</azimuth>
          <distance>0.1178794396</distance>
          <takeoffAngle>
            <value>110.7</value>
          </takeoffAngle>
          <timeResidual>0.05361392893</timeResidual>
          <timeWeight>1.185789855</timeWeight>
        </arrival>
        <arrival publicID="smi:org.gfz-potsdam.de/geofon/Pick/20231108104816.581599.83464_NLL.20231108154601.896224.85124">
          <pickID>smi:org.gfz-potsdam.de/geofon/Pick/20231108104816.581599.83464</pickID>
          <phase>P</phase>
          <timeCorrection>0.0</timeCorrection>
          <azimuth>120.5131495</azimuth>
          <distance>0.1346805471</distance>
          <takeoffAngle>
            <value>106.8</value>
          </takeoffAngle>
          <timeResidual>0.02837964374</timeResidual>
          <timeWeight>1.005369215</timeWeight>
        </arrival>
        <arrival publicID="smi:org.gfz-potsdam.de/geofon/Pick/20231108104816.581765.83465_NLL.20231108154601.896224.85124">
          <pickID>smi:org.gfz-potsdam.de/geofon/Pick/20231108104816.581765.83465</pickID>
          <phase>P</phase>
          <timeCorrection>0.0</timeCorrection>
          <azimuth>250.5342732</azimuth>
          <distance>0.1302856784</distance>
          <takeoffAngle>
            <value>107.9</value>
          </takeoffAngle>
          <timeResidual>0.1433099846</timeResidual>
          <timeWeight>1.144997833</timeWeight>
        </arrival>
        <arrival publicID="smi:org.gfz-potsdam.de/geofon/Pick/20231108105210.455652.84499_NLL.20231108154601.896224.85124">
          <pickID>smi:org.gfz-potsdam.de/geofon/Pick/20231108105210.455652.84499</pickID>
          <phase>P</phase>
          <timeCorrection>0.0</timeCorrection>
          <azimuth>163.7742809</azimuth>
          <distance>0.09565796664</distance>
          <takeoffAngle>
            <value>117.7</value>
          </takeoffAngle>
          <timeResidual>-0.04772427973</timeResidual>
          <timeWeight>0.9727573718</timeWeight>
        </arrival>
        <arrival publicID="smi:org.gfz-potsdam.de/geofon/Pick/20231108105210.455889.84501_NLL.20231108154601.896224.85124">
          <pickID>smi:org.gfz-potsdam.de/geofon/Pick/20231108105210.455889.84501</pickID>
          <phase>S</phase>
          <timeCorrection>0.0</timeCorrection>
          <azimuth>313.6618047</azimuth>
          <distance>0.1966835045</distance>
          <takeoffAngle>
            <value>98.7</value>
          </takeoffAngle>
          <timeResidual>-0.4495058201</timeResidual>
          <timeWeight>0.0</timeWeight>
        </arrival>
        <arrival publicID="smi:org.gfz-potsdam.de/geofon/Pick/20231108105210.455936.84502_NLL.20231108154601.896224.85124">
          <pickID>smi:org.gfz-potsdam.de/geofon/Pick/20231108105210.455936.84502</pickID>
          <phase>S</phase>
          <timeCorrection>0.0</timeCorrection>
          <azimuth>338.5428176</azimuth>
          <distance>0.2461430415</distance>
          <takeoffAngle>
            <value>96.1</value>
          </takeoffAngle>
          <timeResidual>-0.3611849306</timeResidual>
          <timeWeight>0.0</timeWeight>
        </arrival>
        <arrival publicID="smi:org.gfz-potsdam.de/geofon/Pick/20231108105210.45598.84503_NLL.20231108154601.896224.85124">
          <pickID>smi:org.gfz-potsdam.de/geofon/Pick/20231108105210.45598.84503</pickID>
          <phase>P</phase>
          <timeCorrection>0.0</timeCorrection>
          <azimuth>338.5428176</azimuth>
          <distance>0.2461430415</distance>
          <takeoffAngle>
            <value>96.1</value>
          </takeoffAngle>
          <timeResidual>0.1056733186</timeResidual>
          <timeWeight>1.003246013</timeWeight>
        </arrival>
        <arrival publicID="smi:org.gfz-potsdam.de/geofon/Pick/20231108105210.456035.84504_NLL.20231108154601.896224.85124">
          <pickID>smi:org.gfz-potsdam.de/geofon/Pick/20231108105210.456035.84504</pickID>
          <phase>P</phase>
          <timeCorrection>0.0</timeCorrection>
          <azimuth>281.9114767</azimuth>
          <distance>0.2462480826</distance>
          <takeoffAngle>
            <value>96.1</value>
          </takeoffAngle>
          <timeResidual>-0.07239096367</timeResidual>
          <timeWeight>0.9541655377</timeWeight>
        </arrival>
        <arrival publicID="smi:org.gfz-potsdam.de/geofon/Pick/20231108105210.456078.84505_NLL.20231108154601.896224.85124">
          <pickID>smi:org.gfz-potsdam.de/geofon/Pick/20231108105210.456078.84505</pickID>
          <phase>S</phase>
          <timeCorrection>0.0</timeCorrection>
          <azimuth>281.9114767</azimuth>
          <distance>0.2462480826</distance>
          <takeoffAngle>
            <value>96.1</value>
          </takeoffAngle>
          <timeResidual>-0.3814688459</timeResidual>
          <timeWeight>0.0</timeWeight>
        </arrival>
        <arrival publicID="smi:org.gfz-potsdam.de/geofon/Pick/20231108105210.456134.84506_NLL.20231108154601.896224.85124">
          <pickID>smi:org.gfz-potsdam.de/geofon/Pick/20231108105210.456134.84506</pickID>
          <phase>S</phase>
          <timeCorrection>0.0</timeCorrection>
          <azimuth>31.6780906</azimuth>
          <distance>0.2570508788</distance>
          <takeoffAngle>
            <value>95.6</value>
          </takeoffAngle>
          <timeResidual>0.3039396351</timeResidual>
          <timeWeight>0.8517304</timeWeight>
        </arrival>
        <arrival publicID="smi:org.gfz-potsdam.de/geofon/Pick/20231108105210.456298.84509_NLL.20231108154601.896224.85124">
          <pickID>smi:org.gfz-potsdam.de/geofon/Pick/20231108105210.456298.84509</pickID>
          <phase>S</phase>
          <timeCorrection>0.0</timeCorrection>
          <azimuth>99.20511846</azimuth>
          <distance>0.2713743807</distance>
          <takeoffAngle>
            <value>95.2</value>
          </takeoffAngle>
          <timeResidual>0.3055555289</timeResidual>
          <timeWeight>0.8487052247</timeWeight>
        </arrival>
        <arrival publicID="smi:org.gfz-potsdam.de/geofon/Pick/20231108152900.806786.76172_NLL.20231108154601.896224.85124">
          <pickID>smi:org.gfz-potsdam.de/geofon/Pick/20231108152900.806786.76172</pickID>
          <phase>P</phase>
          <timeCorrection>0.0</timeCorrection>
          <azimuth>265.916171</azimuth>
          <distance>0.03055486578</distance>
          <takeoffAngle>
            <value>154.4</value>
          </takeoffAngle>
          <timeResidual>-0.216537757</timeResidual>
          <timeWeight>0.85850774</timeWeight>
        </arrival>
        <arrival publicID="smi:org.gfz-potsdam.de/geofon/Pick/20231108152900.807924.76173_NLL.20231108154601.896224.85124">
          <pickID>smi:org.gfz-potsdam.de/geofon/Pick/20231108152900.807924.76173</pickID>
          <phase>P</phase>
          <timeCorrection>0.0</timeCorrection>
          <azimuth>44.10877808</azimuth>
          <distance>0.1831774317</distance>
          <takeoffAngle>
            <value>99.7</value>
          </takeoffAngle>
          <timeResidual>-0.07261362218</timeResidual>
          <timeWeight>1.253388703</timeWeight>
        </arrival>
        <arrival publicID="smi:org.gfz-potsdam.de/geofon/Pick/20231108152900.808213.76174_NLL.20231108154601.896224.85124">
          <pickID>smi:org.gfz-potsdam.de/geofon/Pick/20231108152900.808213.76174</pickID>
          <phase>P</phase>
          <timeCorrection>0.0</timeCorrection>
          <azimuth>313.6618047</azimuth>
          <distance>0.1966835045</distance>
          <takeoffAngle>
            <value>98.7</value>
          </takeoffAngle>
          <timeResidual>0.1311634523</timeResidual>
          <timeWeight>1.154816182</timeWeight>
        </arrival>
        <arrival publicID="smi:org.gfz-potsdam.de/geofon/Pick/20231108152900.808538.76175_NLL.20231108154601.896224.85124">
          <pickID>smi:org.gfz-potsdam.de/geofon/Pick/20231108152900.808538.76175</pickID>
          <phase>P</phase>
          <timeCorrection>0.0</timeCorrection>
          <azimuth>31.6780906</azimuth>
          <distance>0.2570508788</distance>
          <takeoffAngle>
            <value>95.6</value>
          </takeoffAngle>
